NORAD_CAT_ID,OBJECT_NAME,OBJECT_TYPE,EPOCH,MEAN_MOTION,ECCENTRICITY,INCLINATION,RA_OF_ASC_NODE,ARG_OF_PERICENTER,MEAN_ANOMALY,BSTAR,MEAN_MOTION_DOT,MEAN_MOTION_DDOT,TLE_LINE0,TLE_LINE1,TLE_LINE2,SEMIMAJOR_AXIS,PERIOD,APOGEE,PERIGEE,DECAYED
53612.0,STARLINK-4658,PAYLOAD,2023-01-29 20:42:13,15.08836502,0.0001215,53.2178,288.6227,86.2132,273.9,-8.7894e-05,-1.686e-05,0.0,0 STARLINK-4658,1 53612U 22104AA  23029.86265501 -.00001686  00000-0 -87894-4 0  9998,2 53612  53.2178 288.6227 0001215  86.2132 273.9000 15.08836502 24310,6917.891,95.438,540.597,538.916,0.0
53612.0,STARLINK-4658,PAYLOAD,2023-01-29 23:52:59,15.08839075,0.0001187,53.2177,288.028,89.5753,270.5375,-6.6863e-05,-1.352e-05,0.0,0 STARLINK-4658,1 53612U 22104AA  23029.99513286 -.00001352  00000-0 -66863-4 0  9991,2 53612  53.2177 288.0280 0001187  89.5753 270.5375 15.08839075 23769,6917.883,95.438,540.569,538.927,0.0
53612.0,STARLINK-4658,PAYLOAD,2023-01-30 22:08:23,15.08840521,0.0001089,53.2172,283.8661,93.2504,266.8612,-2.6868e-05,-7.15e-06,0.0,0 STARLINK-4658,1 53612U 22104AA  23030.92249193 -.00000715  00000-0 -26868-4 0  9992,2 53612  53.2172 283.8661 0001089  93.2504 266.8612 15.08840521 24476,6917.879,95.438,540.497,538.99,0.0
53612.0,STARLINK-4658,PAYLOAD,2023-01-31 02:54:32,15.08849423,0.0001006,53.2176,282.9724,90.6306,269.4801,-7.7414e-06,-4.11e-06,0.0,0 STARLINK-4658,1 53612U 22104AA  23031.12120528 -.00000411  00000-0 -77414-5 0  9992,2 53612  53.2176 282.9724 0001006  90.6306 269.4801 15.08849423 23939,6917.852,95.437,540.413,539.021,0.0
53612.0,STARLINK-4658,PAYLOAD,2023-01-31 17:13:01,15.08824617,0.0001285,53.218,280.2974,94.4123,265.7016,0.00011888,1.604e-05,0.0,0 STARLINK-4658,1 53612U 22104AA  23031.71737597  .00001604  00000-0  11888-3 0  9991,2 53612  53.2180 280.2974 0001285  94.4123 265.7016 15.08824617 24026,6917.927,95.439,540.681,538.903,0.0
53612.0,STARLINK-4658,PAYLOAD,2023-02-01 02:45:19,15.08841231,0.0001284,53.2171,278.5137,96.0321,264.0817,7.5945e-05,9.21e-06,0.0,0 STARLINK-4658,1 53612U 22104AA  23032.11480953  .00000921  00000-0  75945-4 0  9993,2 53612  53.2171 278.5137 0001284  96.0321 264.0817 15.08841231 24082,6917.877,95.437,540.63,538.853,0.0
53612.0,STARLINK-4658,PAYLOAD,2023-02-02 01:00:44,15.08837179,0.0001828,53.2158,274.3496,73.6176,286.5017,-2.5997e-05,-7.02e-06,0.0,0 STARLINK-4658,1 53612U 22104AA  23033.04217926 -.00000702  00000-0 -25997-4 0  9995,2 53612  53.2158 274.3496 0001828  73.6176 286.5017 15.08837179 24225,6917.889,95.438,541.019,538.489,0.0
53612.0,STARLINK-4658,PAYLOAD,2023-02-03 00:51:30,15.08843185,0.0001313,53.2173,269.8902,84.1923,275.9218,2.2159e-05,6.5e-07,0.0,0 STARLINK-4658,1 53612U 22104AA  23034.03577192  .00000065  00000-0  22159-4 0  9996,2 53612  53.2173 269.8902 0001313  84.1923 275.9218 15.08843185 24374,6917.871,95.437,540.644,538.827,0.0
53612.0,STARLINK-4658,PAYLOAD,2023-02-04 21:22:18,15.08848088,0.0001397,53.2172,261.5635,120.6868,239.4262,-6.6211e-05,-1.342e-05,0.0,0 STARLINK-4658,1 53612U 22104AA  23035.89049104 -.00001342  00000-0 -66211-4 0  9996,2 53612  53.2172 261.5635 0001397 120.6868 239.4262 15.08848088 24653,6917.856,95.437,540.687,538.754,0.0
53612.0,STARLINK-4658,PAYLOAD,2023-02-05 02:08:27,15.0882254,0.0001387,53.2169,260.6711,93.9461,266.169,0.00034372,5.184e-05,0.0,0 STARLINK-4658,1 53612U 22104AA  23036.08921077  .00005184  00000-0  34372-3 0  9994,2 53612  53.2169 260.6711 0001387  93.9461 266.1690 15.08822540 24684,6917.934,95.439,540.758,538.839,0.0
53612.0,STARLINK-4658,PAYLOAD,2023-02-05 21:13:05,15.0883785,0.0001297,53.2173,257.1036,93.5648,266.5492,-3.1227e-06,-3.38e-06,0.0,0 STARLINK-4658,1 53612U 22104AA  23036.88409590 -.00000338  00000-0 -31227-5 0  9999,2 53612  53.2173 257.1036 0001297  93.5648 266.5492 15.08837850 25374,6917.887,95.438,540.649,538.855,0.0
53612.0,STARLINK-4658,PAYLOAD,2023-02-06 01:59:14,15.08841707,0.0001256,53.2171,256.2111,92.4557,267.6579,2.343e-05,8.5e-07,0.0,0 STARLINK-4658,1 53612U 22104AA  23037.08281241  .00000085  00000-0  23430-4 0  9996,2 53612  53.2171 256.2111 0001256  92.4557 267.6579 15.08841707 25406,6917.875,95.437,540.609,538.871,0.0
53612.0,STARLINK-4658,PAYLOAD,2023-02-06 21:03:52,15.08842496,0.0001195,53.2166,252.6426,86.6232,273.4897,1.1101e-05,-1.11e-06,0.0,0 STARLINK-4658,1 53612U 22104AA  23037.87769415 -.00000111  00000-0  11101-4 0  9990,2 53612  53.2166 252.6426 0001195  86.6232 273.4897 15.08842496 24959,6917.873,95.437,540.564,538.911,0.0
53612.0,STARLINK-4658,PAYLOAD,2023-02-07 20:54:39,15.08839467,0.0001162,53.2169,248.1824,87.4157,272.6969,3.8342e-05,3.22e-06,0.0,0 STARLINK-4658,1 53612U 22104AA  23038.87129592  .00000322  00000-0  38342-4 0  9996,2 53612  53.2169 248.1824 0001162  87.4157 272.6969 15.08839467 25678,6917.882,95.438,540.551,538.943,0.0
53612.0,STARLINK-4658,PAYLOAD,2023-02-07 22:30:02,15.08842319,0.0001147,53.2168,247.885,86.4646,273.6477,5.8562e-05,6.44e-06,0.0,0 STARLINK-4658,1 53612U 22104AA  23038.93753346  .00000644  00000-0  58562-4 0  9996,2 53612  53.2168 247.8850 0001147  86.4646 273.6477 15.08842319 25111,6917.873,95.437,540.532,538.945,0.0
53612.0,STARLINK-4658,PAYLOAD,2023-02-08 19:10:04,15.0883578,0.0001137,53.2172,244.0192,94.9431,265.1691,-2.2581e-05,-6.47e-06,0.0,0 STARLINK-4658,1 53612U 22104AA  23039.79866185 -.00000647  00000-0 -22581-4 0  9994,2 53612  53.2172 244.0192 0001137  94.9431 265.1691 15.08835780 25241,6917.893,95.438,540.545,538.972,0.0
53612.0,STARLINK-4658,PAYLOAD,2023-02-09 06:17:46,15.08835303,0.000108,53.2165,241.9374,85.2341,274.8775,-4.0497e-05,-9.32e-06,0.0,0 STARLINK-4658,1 53612U 22104AA  23040.26234304 -.00000932  00000-0 -40497-4 0  9993,2 53612  53.2165 241.9374 0001080  85.2341 274.8775 15.08835303 25882,6917.895,95.438,540.507,539.013,0.0
53612.0,STARLINK-4658,PAYLOAD,2023-02-09 19:00:51,15.08835523,0.0001052,53.2168,239.5588,90.3061,269.8052,-5.1393e-05,-1.105e-05,0.0,0 STARLINK-4658,1 53612U 22104AA  23040.79226648 -.00001105  00000-0 -51393-4 0  9993,2 53612  53.2168 239.5588 0001052  90.3061 269.8052 15.08835523 25965,6917.894,95.438,540.487,539.031,0.0
53612.0,STARLINK-4658,PAYLOAD,2023-02-09 23:47:00,15.08839213,0.000114,53.2171,238.6649,81.6232,278.4889,-3.3333e-05,-8.18e-06,0.0,0 STARLINK-4658,1 53612U 22104AA  23040.99098362 -.00000818  00000-0 -33333-4 0  9999,2 53612  53.2171 238.6649 0001140  81.6232 278.4889 15.08839213 25423,6917.883,95.438,540.536,538.959,0.0
53612.0,STARLINK-4658,PAYLOAD,2023-02-10 15:40:51,15.08843213,0.0001004,53.2159,235.6914,76.6281,283.4823,7.3048e-05,8.75e-06,0.0,0 STARLINK-4658,1 53612U 22104AA  23041.65337936  .00000875  00000-0  73048-4 0  9994,2 53612  53.2159 235.6914 0001004  76.6281 283.4823 15.08843213 26091,6917.871,95.437,540.43,539.041,0.0
53612.0,STARLINK-4658,PAYLOAD,2023-02-11 05:59:20,15.08835367,9.42e-05,53.2189,233.0147,79.2519,280.8579,9.7574e-06,-1.32e-06,0.0,0 STARLINK-4658,1 53612U 22104AA  23042.24954532 -.00000132  00000-0  97574-5 0  9995,2 53612  53.2189 233.0147 0000942  79.2519 280.8579 15.08835367 25614,6917.895,95.438,540.411,539.108,0.0
53612.0,STARLINK-4658,PAYLOAD,2023-02-11 18:42:25,15.08835261,0.0001011,53.217,230.6359,79.4499,280.6607,9.2193e-05,1.18e-05,0.0,0 STARLINK-4658,1 53612U 22104AA  23042.77946575  .00001180  00000-0  92193-4 0  9995,2 53612  53.2170 230.6359 0001011  79.4499 280.6607 15.08835261 26264,6917.895,95.438,540.459,539.06,0.0
53612.0,STARLINK-4658,PAYLOAD,2023-02-12 05:50:07,15.08841867,0.0001009,53.2177,228.5553,78.2157,281.8948,5.44e-05,5.78e-06,0.0,0 STARLINK-4658,1 53612U 22104AA  23043.24314373  .00000578  00000-0  54400-4 0  9992,2 53612  53.2177 228.5553 0001009  78.2157 281.8948 15.08841867 26336,6917.875,95.437,540.438,539.042,0.0
53612.0,STARLINK-4658,PAYLOAD,2023-02-12 18:33:12,15.08845032,9.94e-05,53.2172,226.1758,84.8646,275.246,7.4736e-05,9.02e-06,0.0,0 STARLINK-4658,1 53612U 22104AA  23043.77306074  .00000902  00000-0  74736-4 0  9994,2 53612  53.2172 226.1758 0000994  84.8646 275.2460 15.08845032 25849,6917.865,95.437,540.418,539.042,0.0
53612.0,STARLINK-4658,PAYLOAD,2023-02-13 13:37:51,15.0883039,0.000111,53.2172,222.6079,84.2429,275.8689,1.8637e-05,9e-08,0.0,0 STARLINK-4658,1 53612U 22104AA  23044.56795344  .00000009  00000-0  18637-4 0  9990,2 53612  53.2172 222.6079 0001110  84.2429 275.8689 15.08830390 26537,6917.91,95.438,540.543,539.007,0.0
53612.0,STARLINK-4658,PAYLOAD,2023-02-14 11:53:14,15.08840564,8.62e-05,53.2177,218.4449,89.568,270.5411,0.00014205,1.974e-05,0.0,0 STARLINK-4658,1 53612U 22104AA  23045.49530520  .00001974  00000-0  14205-3 0  9994,2 53612  53.2177 218.4449 0000862  89.5680 270.5411 15.08840564 26108,6917.879,95.438,540.34,539.147,0.0
53612.0,STARLINK-4658,PAYLOAD,2023-02-14 18:14:46,15.08853154,0.00011,53.218,217.2564,87.1081,273.0037,0.00015014,2.103e-05,0.0,0 STARLINK-4658,1 53612U 22104AA  23045.76025679  .00002103  00000-0  15014-3 0  9992,2 53612  53.2180 217.2564 0001100  87.1081 273.0037 15.08853154 26147,6917.84,95.437,540.466,538.944,0.0
53612.0,STARLINK-4658,PAYLOAD,2023-02-15 03:47:07,15.08815918,0.0001917,53.2164,215.4678,91.982,268.1392,0.00023348,3.427e-05,0.0,0 STARLINK-4658,1 53612U 22104AA  23046.15772093  .00003427  00000-0  23348-3 0  9994,2 53612  53.2164 215.4678 0001917  91.9820 268.1392 15.08815918 26207,6917.954,95.439,541.145,538.493,0.0
53612.0,STARLINK-4658,PAYLOAD,2023-02-15 11:44:01,15.08833132,6.68e-05,53.2206,213.9843,122.4135,237.6922,2.84e-05,1.64e-06,0.0,0 STARLINK-4658,1 53612U 22104AA  23046.48891149  .00000164  00000-0  28400-4 0  9994,2 53612  53.2206 213.9843 0000668 122.4135 237.6922 15.08833132 26255,6917.901,95.438,540.228,539.304,0.0
53612.0,STARLINK-4658,PAYLOAD,2023-02-15 13:19:25,15.08834671,7.14e-05,53.2203,213.6868,114.8774,245.2292,4.1069e-05,3.66e-06,0.0,0 STARLINK-4658,1 53612U 22104AA  23046.55515047  .00000366  00000-0  41069-4 0  9992,2 53612  53.2203 213.6868 0000714 114.8774 245.2292 15.08834671 26830,6917.897,95.438,540.256,539.268,0.0
